NORAD_CAT_ID,OBJECT_NAME,OBJECT_TYPE,EPOCH,MEAN_MOTION,ECCENTRICITY,INCLINATION,RA_OF_ASC_NODE,ARG_OF_PERICENTER,MEAN_ANOMALY,BSTAR,MEAN_MOTION_DOT,MEAN_MOTION_DDOT,TLE_LINE0,TLE_LINE1,TLE_LINE2,SEMIMAJOR_AXIS,PERIOD,APOGEE,PERIGEE,DECAYED
49154.0,STARLINK-3068,PAYLOAD,2024-05-28 21:13:57,14.98329858,0.000281,69.9993,112.835,264.3871,95.6968,2.1717e-05,1.66e-06,0.0,0 STARLINK-3068,1 49154U 21082AA  24149.88469503  .00000166  00000-0  21717-4 0  9994,2 49154  69.9993 112.8350 0002810 264.3871  95.6968 14.98329858150211,6950.193,96.107,574.011,570.105,0.0
49154.0,STARLINK-3068,PAYLOAD,2024-05-29 06:50:46,14.98329776,0.0002834,69.9993,111.825,264.0908,95.9928,1.6635e-05,1.06e-06,0.0,0 STARLINK-3068,1 49154U 21082AA  24150.28525514  .00000106  00000-0  16635-4 0  9992,2 49154  69.9993 111.8250 0002834 264.0908  95.9928 14.98329776150277,6950.194,96.107,574.028,570.089,0.0
49154.0,STARLINK-3068,PAYLOAD,2024-05-29 22:52:06,14.98330642,0.000288,69.9992,110.1417,264.0175,96.0655,4.8309e-05,4.83e-06,0.0,0 STARLINK-3068,1 49154U 21082AA  24150.95285388  .00000483  00000-0  48309-4 0  9999,2 49154  69.9992 110.1417 0002880 264.0175  96.0655 14.98330642150374,6950.191,96.107,574.058,570.054,0.0
49154.0,STARLINK-3068,PAYLOAD,2024-05-30 03:40:30,14.98331057,0.0002874,69.9992,109.6368,263.781,96.3021,5.1768e-05,5.25e-06,0.0,0 STARLINK-3068,1 49154U 21082AA  24151.15313347  .00000525  00000-0  51768-4 0  9999,2 49154  69.9992 109.6368 0002874 263.7810  96.3021 14.98331057150402,6950.19,96.107,574.052,570.057,0.0
49154.0,STARLINK-3068,PAYLOAD,2024-05-30 06:52:46,14.98332506,0.0002893,69.9991,109.2997,266.089,93.9939,6.5715e-05,6.91e-06,0.0,0 STARLINK-3068,1 49154U 21082AA  24151.28665211  .00000691  00000-0  65715-4 0  9994,2 49154  69.9991 109.2997 0002893 266.0890  93.9939 14.98332506150423,6950.185,96.107,574.061,570.039,0.0
49154.0,STARLINK-3068,PAYLOAD,2024-05-31 05:18:39,14.98333724,0.0002867,69.9994,106.9432,266.5556,93.5275,5.8511e-05,6.05e-06,0.0,0 STARLINK-3068,1 49154U 21082AA  24152.22129026  .00000605  00000-0  58511-4 0  9999,2 49154  69.9994 106.9432 0002867 266.5556  93.5275 14.98333724150566,6950.181,96.107,574.039,570.054,0.0
49154.0,STARLINK-3068,PAYLOAD,2024-05-31 06:54:47,14.9833479,0.000286,69.9995,106.7751,266.71,93.3732,6.9982e-05,7.42e-06,0.0,0 STARLINK-3068,1 49154U 21082AA  24152.28804918  .00000742  00000-0  69982-4 0  9991,2 49154  69.9995 106.7751 0002860 266.7100  93.3732 14.98334790150570,6950.178,96.107,574.031,570.055,0.0
49154.0,STARLINK-3068,PAYLOAD,2024-05-31 22:56:08,14.98329077,0.0002859,69.9996,105.0912,270.4461,89.6371,-1.7136e-05,-2.97e-06,0.0,0 STARLINK-3068,1 49154U 21082AA  24152.95565428 -.00000297  00000-0 -17136-4 0  9996,2 49154  69.9996 105.0912 0002859 270.4461  89.6371 14.98329077150672,6950.196,96.107,574.048,570.074,0.0
49154.0,STARLINK-3068,PAYLOAD,2024-06-01 03:44:32,14.98329837,0.0002893,69.9996,104.5865,270.7478,89.335,-1.9138e-05,-3.21e-06,0.0,0 STARLINK-3068,1 49154U 21082AA  24153.15593383 -.00000321  00000-0 -19138-4 0  9992,2 49154  69.9996 104.5865 0002893 270.7478  89.3350 14.98329837150704,6950.193,96.107,574.069,570.048,0.0
49154.0,STARLINK-3068,PAYLOAD,2024-06-01 06:56:48,14.98329067,0.0002928,69.9996,104.25,270.8796,89.2028,-3.1052e-05,-4.63e-06,0.0,0 STARLINK-3068,1 49154U 21082AA  24153.28945463 -.00000463  00000-0 -31052-4 0  9992,2 49154  69.9996 104.2500 0002928 270.8796  89.2028 14.98329067150728,6950.196,96.107,574.096,570.026,0.0
49154.0,STARLINK-3068,PAYLOAD,2024-06-02 03:46:33,14.98335826,0.0002873,69.9999,102.0621,270.013,90.07,-3.5572e-05,-5.17e-06,0.0,0 STARLINK-3068,1 49154U 21082AA  24154.15733051 -.00000517  00000-0 -35572-4 0  9998,2 49154  69.9999 102.0621 0002873 270.0130  90.0700 14.98335826150855,6950.175,96.107,574.037,570.043,0.0
49154.0,STARLINK-3068,PAYLOAD,2024-06-02 13:23:22,14.98328536,0.000283,70.0001,101.0522,272.0265,88.057,-6.7389e-05,-8.97e-06,0.0,0 STARLINK-3068,1 49154U 21082AA  24154.55789539 -.00000897  00000-0 -67389-4 0  9996,2 49154  70.0001 101.0522 0002830 272.0265  88.0570 14.98328536150914,6950.197,96.107,574.029,570.096,0.0
49154.0,STARLINK-3068,PAYLOAD,2024-06-02 19:47:54,14.98326907,0.0002726,70.0008,100.3771,272.6633,87.4214,7.9482e-06,2e-08,0.0,0 STARLINK-3068,1 49154U 21082AA  24154.82493491  .00000002  00000-0  79482-5 0  9999,2 49154  70.0008 100.3771 0002726 272.6633  87.4214 14.98326907150950,6950.202,96.107,573.962,570.173,0.0
49154.0,STARLINK-3068,PAYLOAD,2024-06-03 13:25:22,14.98334028,0.0002925,70.0005,98.5278,270.2596,89.8228,-2.3507e-05,-3.73e-06,0.0,0 STARLINK-3068,1 49154U 21082AA  24155.55929210 -.00000373  00000-0 -23507-4 0  9992,2 49154  70.0005  98.5278 0002925 270.2596  89.8228 14.98334028151067,6950.18,96.107,574.078,570.013,0.0
49154.0,STARLINK-3068,PAYLOAD,2024-06-04 03:50:34,14.9833581,0.0002794,70.0002,97.0127,264.188,95.8961,9.3471e-05,1.023e-05,0.0,0 STARLINK-3068,1 49154U 21082AA  24156.16012710  .00001023  00000-0  93471-4 0  9996,2 49154  70.0002  97.0127 0002794 264.1880  95.8961 14.98335810151154,6950.175,96.107,573.982,570.098,0.0
49154.0,STARLINK-3068,PAYLOAD,2024-06-04 13:27:23,14.98331604,0.0002935,69.9998,96.0026,263.3189,96.7636,6.7735e-05,7.15e-06,0.0,0 STARLINK-3068,1 49154U 21082AA  24156.56068954  .00000715  00000-0  67735-4 0  9992,2 49154  69.9998  96.0026 0002935 263.3189  96.7636 14.98331604151215,6950.188,96.107,574.093,570.013,0.0
49154.0,STARLINK-3068,PAYLOAD,2024-06-04 23:04:12,14.98329128,0.0002961,69.9999,94.9929,268.8432,91.2388,5.1813e-05,5.25e-06,0.0,0 STARLINK-3068,1 49154U 21082AA  24156.96125137  .00000525  00000-0  51813-4 0  9992,2 49154  69.9999  94.9929 0002961 268.8432  91.2388 14.98329128151273,6950.196,96.107,574.119,570.003,0.0
49154.0,STARLINK-3068,PAYLOAD,2024-06-05 03:52:35,14.98334461,0.0003224,69.9994,94.4868,267.4408,92.6382,6.5036e-05,6.83e-06,0.0,0 STARLINK-3068,1 49154U 21082AA  24157.16152702  .00000683  00000-0  65036-4 0  9990,2 49154  69.9994  94.4868 0003224 267.4408  92.6382 14.98334461151305,6950.179,96.107,574.285,569.803,0.0
49154.0,STARLINK-3068,PAYLOAD,2024-06-05 13:29:24,14.98326754,0.000318,69.9994,93.4774,268.9768,91.1026,-4.7933e-05,-6.65e-06,0.0,0 STARLINK-3068,1 49154U 21082AA  24157.56209367 -.00000665  00000-0 -47933-4 0  9992,2 49154  69.9994  93.4774 0003180 268.9768  91.1026 14.98326754151367,6950.203,96.107,574.278,569.858,0.0
49154.0,STARLINK-3068,PAYLOAD,2024-06-05 19:53:57,14.98324976,0.0003248,69.9993,92.8042,268.3058,91.7729,-6.4085e-05,-8.58e-06,0.0,0 STARLINK-3068,1 49154U 21082AA  24157.82913549 -.00000858  00000-0 -64085-4 0  9996,2 49154  69.9993  92.8042 0003248 268.3058  91.7729 14.98324976151403,6950.208,96.107,574.331,569.816,0.0
49154.0,STARLINK-3068,PAYLOAD,2024-06-05 21:30:05,14.98326869,0.000309,69.9993,92.6359,269.6728,90.4077,-8.4918e-05,-1.106e-05,0.0,0 STARLINK-3068,1 49154U 21082AA  24157.89589514 -.00001106  00000-0 -84918-4 0  9998,2 49154  69.9993  92.6359 0003090 269.6728  90.4077 14.98326869151411,6950.203,96.107,574.215,569.92,0.0
49154.0,STARLINK-3068,PAYLOAD,2024-06-06 03:54:36,14.98338347,0.0003175,69.9994,91.9626,268.1871,91.8924,-5.7117e-05,-7.75e-06,0.0,0 STARLINK-3068,1 49154U 21082AA  24158.16292792 -.00000775  00000-0 -57117-4 0  9990,2 49154  69.9994  91.9626 0003175 268.1871  91.8924 14.98338347151452,6950.167,96.106,574.239,569.825,0.0
49154.0,STARLINK-3068,PAYLOAD,2024-06-06 13:31:24,14.98343537,0.0003174,69.9994,90.9525,267.8637,92.2159,9.4621e-06,2e-07,0.0,0 STARLINK-3068,1 49154U 21082AA  24158.56348086  .00000020  00000-0  94621-5 0  9995,2 49154  69.9994  90.9525 0003174 267.8637  92.2159 14.98343537151513,6950.151,96.106,574.222,569.81,0.0
49154.0,STARLINK-3068,PAYLOAD,2024-06-07 00:44:22,14.98329811,0.0003127,69.9994,89.7744,266.6329,93.4473,9.7549e-05,1.071e-05,0.0,0 STARLINK-3068,1 49154U 21082AA  24159.03081078  .00001071  00000-0  97549-4 0  9991,2 49154  69.9994  89.7744 0003127 266.6329  93.4473 14.98329811151583,6950.193,96.107,574.232,569.885,0.0
49154.0,STARLINK-3068,PAYLOAD,2024-06-07 08:45:01,14.98341631,0.0003128,69.9994,88.9327,266.6069,93.4732,0.00014961,1.693e-05,0.0,0 STARLINK-3068,1 49154U 21082AA  24159.36460303  .00001693  00000-0  14961-3 0  9995,2 49154  69.9994  88.9327 0003128 266.6069  93.4732 14.98341631151631,6950.157,96.106,574.196,569.848,0.0
49154.0,STARLINK-3068,PAYLOAD,2024-06-07 13:33:25,14.98342491,0.0003142,69.9993,88.4277,266.7967,93.2832,0.00012916,1.449e-05,0.0,0 STARLINK-3068,1 49154U 21082AA  24159.56488303  .00001449  00000-0  12916-3 0  9994,2 49154  69.9993  88.4277 0003142 266.7967  93.2832 14.98342491151660,6950.154,96.106,574.203,569.836,0.0
49154.0,STARLINK-3068,PAYLOAD,2024-06-07 19:57:58,14.98334928,0.0003128,70.0009,87.7545,267.195,92.8851,9.5801e-05,1.05e-05,0.0,0 STARLINK-3068,1 49154U 21082AA  24159.83192886  .00001050  00000-0  95801-4 0  9995,2 49154  70.0009  87.7545 0003128 267.1950  92.8851 14.98334928151709,6950.178,96.107,574.217,569.869,0.0
49154.0,STARLINK-3068,PAYLOAD,2024-06-07 21:34:06,14.98331974,0.0003082,70.0009,87.5861,267.894,92.1866,0.00029471,3.425e-05,0.0,0 STARLINK-3068,1 49154U 21082AA  24159.89869127  .00003425  00000-0  29471-3 0  9997,2 49154  70.0009  87.5861 0003082 267.8940  92.1866 14.98331974151711,6950.187,96.107,574.194,569.91,0.0
49154.0,STARLINK-3068,PAYLOAD,2024-06-08 03:58:38,14.98349514,0.0003096,70.0013,86.913,268.8265,91.2539,0.00061561,7.264e-05,0.0,0 STARLINK-3068,1 49154U 21082AA  24160.16572477  .00007264  00000-0  61561-3 0  9999,2 49154  70.0013  86.9130 0003096 268.8265  91.2539 14.98349514151754,6950.133,96.106,574.149,569.846,0.0
49154.0,STARLINK-3068,PAYLOAD,2024-06-08 11:59:19,14.98324497,0.0003108,70.0017,86.0717,267.7901,92.2902,-0.00052226,-6.318e-05,0.0,0 STARLINK-3068,1 49154U 21082AA  24160.49952852 -.00006318  00000-0 -52226-3 0  9993,2 49154  70.0017  86.0717 0003108 267.7901  92.2902 14.98324497151803,6950.21,96.107,574.235,569.915,0.0
